[{"OBJECT_NAME":"STARLINK-31527","OBJECT_ID":"2024-036W","EPOCH":"2026-03-09T07:35:27.884544","MEAN_MOTION":15.30193496,"ECCENTRICITY":0.00012847,"INCLINATION":53.1588,"RA_OF_ASC_NODE":80.0367,"ARG_OF_PERICENTER":85.6358,"MEAN_ANOMALY":274.4789,"EPHEMERIS_TYPE":0,"CLASSIFICATION_TYPE":"U","NORAD_CAT_ID":59018,"ELEMENT_SET_NO":999,"REV_AT_EPOCH":11526,"BSTAR":-4.6739165e-5,"MEAN_MOTION_DOT":-1.743e-5,"MEAN_MOTION_DDOT":0},{"OBJECT_NAME":"VSP RF C1","OBJECT_ID":"2024-043AQ","EPOCH":"2026-03-09T21:56:05.358624","MEAN_MOTION":15.29409663,"ECCENTRICITY":0.00093965,"INCLINATION":97.5441,"RA_OF_ASC_NODE":205.1792,"ARG_OF_PERICENTER":219.6172,"MEAN_ANOMALY":140.4382,"EPHEMERIS_TYPE":0,"CLASSIFICATION_TYPE":"U","NORAD_CAT_ID":59136,"ELEMENT_SET_NO":999,"REV_AT_EPOCH":11190,"BSTAR":0.00026222052,"MEAN_MOTION_DOT":7.409e-5,"MEAN_MOTION_DDOT":0}]
